[{"OBJECT_NAME":"SAUDICOMSAT 6","OBJECT_ID":"2007-012E","EPOCH":"2026-03-09T21:15:43.629696","MEAN_MOTION":14.62432218,"ECCENTRICITY":0.00706343,"INCLINATION":98.399,"RA_OF_ASC_NODE":34.6274,"ARG_OF_PERICENTER":276.1767,"MEAN_ANOMALY":83.139,"EPHEMERIS_TYPE":0,"CLASSIFICATION_TYPE":"U","NORAD_CAT_ID":31121,"ELEMENT_SET_NO":999,"REV_AT_EPOCH":567,"BSTAR":0.00019628889,"MEAN_MOTION_DOT":9.75e-6,"MEAN_MOTION_DDOT":0},{"OBJECT_NAME":"SL-14 R\/B","OBJECT_ID":"1990-018B","EPOCH":"2026-03-09T21:46:28.582464","MEAN_MOTION":14.82145209,"ECCENTRICITY":0.00176734,"INCLINATION":82.5203,"RA_OF_ASC_NODE":222.8861,"ARG_OF_PERICENTER":91.4,"MEAN_ANOMALY":268.9239,"EPHEMERIS_TYPE":0,"CLASSIFICATION_TYPE":"U","NORAD_CAT_ID":20511,"ELEMENT_SET_NO":999,"REV_AT_EPOCH":92261,"BSTAR":8.2072718e-5,"MEAN_MOTION_DOT":6.78e-6,"MEAN_MOTION_DDOT":0}]
